ORBCOMM FM20            
1 25416U 98046D   24202.58430635  .00002100  00000+0  77252-3 0  9997
2 25416  44.9953 309.7636 0001751 234.7613 125.3070 14.35472555356584
ORBCOMM FM16            
1 25417U 98046E   24202.56165329  .00003241  00000+0  11408-2 0  9998
2 25417  44.9950 305.0797 0001655  84.5219 275.5817 14.36546067356527
ORBCOMM FM13            
1 25420U 98046H   24202.56108643  .00002957  00000+0  10634-2 0  9991
2 25420  44.9987 313.6109 0002501  50.0604 310.0463 14.35676512355541
ORBCOMM FM21            
1 25475U 98053A   24202.58571586  .00002844  00000+0  10268-2 0  9999
2 25475  45.0094  37.9227 0000388  71.2106 288.8784 14.35568751349560
ORBCOMM FM22            
1 25476U 98053B   24202.53572312  .00002799  00000+0  99978-3 0  9998
2 25476  45.0086  35.1383 0001629   2.9922 357.0936 14.36149054349550
ORBCOMM FM23            
1 25477U 98053C   24202.54195185  .00002632  00000+0  95288-3 0  9995
2 25477  45.0092  40.5289 0001158   7.0542 353.0322 14.35618080349705
