<?xml version="1.0" encoding="UTF-8"?>
<ndm xmlns:xsi="http://www.w3.org/2001/XMLSchema-instance" xsi:noNamespaceSchemaLocation="https://sanaregistry.org/r/ndmxml_unqualified/ndmxml-2.0.0-master-2.0.xsd">
<omm id="CCSDS_OMM_VERS" version="2.0">
<header><CREATION_DATE/><ORIGINATOR/></header><body><segment><metadata><OBJECT_NAME>ORBCOMM FM20</OBJECT_NAME><OBJECT_ID>1998-046D</OBJECT_ID><CENTER_NAME>EARTH</CENTER_NAME><REF_FRAME>TEME</REF_FRAME><TIME_SYSTEM>UTC</TIME_SYSTEM><MEAN_ELEMENT_THEORY>SGP4</MEAN_ELEMENT_THEORY></metadata><data><meanElements><EPOCH>2024-07-20T14:01:24.068640</EPOCH><MEAN_MOTION>14.35472555</MEAN_MOTION><ECCENTRICITY>.0001751</ECCENTRICITY><INCLINATION>44.9953</INCLINATION><RA_OF_ASC_NODE>309.7636</RA_OF_ASC_NODE><ARG_OF_PERICENTER>234.7613</ARG_OF_PERICENTER><MEAN_ANOMALY>125.3070</MEAN_ANOMALY></meanElements><tleParameters><EPHEMERIS_TYPE>0</EPHEMERIS_TYPE><CLASSIFICATION_TYPE>U</CLASSIFICATION_TYPE><NORAD_CAT_ID>25416</NORAD_CAT_ID><ELEMENT_SET_NO>999</ELEMENT_SET_NO><REV_AT_EPOCH>35658</REV_AT_EPOCH><BSTAR>.77252E-3</BSTAR><MEAN_MOTION_DOT>.21E-4</MEAN_MOTION_DOT><MEAN_MOTION_DDOT>0</MEAN_MOTION_DDOT></tleParameters></data></segment></body></omm>
<omm id="CCSDS_OMM_VERS" version="2.0">
<header><CREATION_DATE/><ORIGINATOR/></header><body><segment><metadata><OBJECT_NAME>ORBCOMM FM16</OBJECT_NAME><OBJECT_ID>1998-046E</OBJECT_ID><CENTER_NAME>EARTH</CENTER_NAME><REF_FRAME>TEME</REF_FRAME><TIME_SYSTEM>UTC</TIME_SYSTEM><MEAN_ELEMENT_THEORY>SGP4</MEAN_ELEMENT_THEORY></metadata><data><meanElements><EPOCH>2024-07-20T13:28:46.844256</EPOCH><MEAN_MOTION>14.36546067</MEAN_MOTION><ECCENTRICITY>.0001655</ECCENTRICITY><INCLINATION>44.9950</INCLINATION><RA_OF_ASC_NODE>305.0797</RA_OF_ASC_NODE><ARG_OF_PERICENTER>84.5219</ARG_OF_PERICENTER><MEAN_ANOMALY>275.5817</MEAN_ANOMALY></meanElements><tleParameters><EPHEMERIS_TYPE>0</EPHEMERIS_TYPE><CLASSIFICATION_TYPE>U</CLASSIFICATION_TYPE><NORAD_CAT_ID>25417</NORAD_CAT_ID><ELEMENT_SET_NO>999</ELEMENT_SET_NO><REV_AT_EPOCH>35652</REV_AT_EPOCH><BSTAR>.11408E-2</BSTAR><MEAN_MOTION_DOT>.3241E-4</MEAN_MOTION_DOT><MEAN_MOTION_DDOT>0</MEAN_MOTION_DDOT></tleParameters></data></segment></body></omm>
<omm id="CCSDS_OMM_VERS" version="2.0">
<header><CREATION_DATE/><ORIGINATOR/></header><body><segment><metadata><OBJECT_NAME>ORBCOMM FM13</OBJECT_NAME><OBJECT_ID>1998-046H</OBJECT_ID><CENTER_NAME>EARTH</CENTER_NAME><REF_FRAME>TEME</REF_FRAME><TIME_SYSTEM>UTC</TIME_SYSTEM><MEAN_ELEMENT_THEORY>SGP4</MEAN_ELEMENT_THEORY></metadata><data><meanElements><EPOCH>2024-07-20T13:27:57.867552</EPOCH><MEAN_MOTION>14.35676512</MEAN_MOTION><ECCENTRICITY>.0002501</ECCENTRICITY><INCLINATION>44.9987</INCLINATION><RA_OF_ASC_NODE>313.6109</RA_OF_ASC_NODE><ARG_OF_PERICENTER>50.0604</ARG_OF_PERICENTER><MEAN_ANOMALY>310.0463</MEAN_ANOMALY></meanElements><tleParameters><EPHEMERIS_TYPE>0</EPHEMERIS_TYPE><CLASSIFICATION_TYPE>U</CLASSIFICATION_TYPE><NORAD_CAT_ID>25420</NORAD_CAT_ID><ELEMENT_SET_NO>999</ELEMENT_SET_NO><REV_AT_EPOCH>35554</REV_AT_EPOCH><BSTAR>.10634E-2</BSTAR><MEAN_MOTION_DOT>.2957E-4</MEAN_MOTION_DOT><MEAN_MOTION_DDOT>0</MEAN_MOTION_DDOT></tleParameters></data></segment></body></omm>
<omm id="CCSDS_OMM_VERS" version="2.0">
<header><CREATION_DATE/><ORIGINATOR/></header><body><segment><metadata><OBJECT_NAME>ORBCOMM FM21</OBJECT_NAME><OBJECT_ID>1998-053A</OBJECT_ID><CENTER_NAME>EARTH</CENTER_NAME><REF_FRAME>TEME</REF_FRAME><TIME_SYSTEM>UTC</TIME_SYSTEM><MEAN_ELEMENT_THEORY>SGP4</MEAN_ELEMENT_THEORY></metadata><data><meanElements><EPOCH>2024-07-20T14:03:25.850304</EPOCH><MEAN_MOTION>14.35568751</MEAN_MOTION><ECCENTRICITY>.0000388</ECCENTRICITY><INCLINATION>45.0094</INCLINATION><RA_OF_ASC_NODE>37.9227</RA_OF_ASC_NODE><ARG_OF_PERICENTER>71.2106</ARG_OF_PERICENTER><MEAN_ANOMALY>288.8784</MEAN_ANOMALY></meanElements><tleParameters><EPHEMERIS_TYPE>0</EPHEMERIS_TYPE><CLASSIFICATION_TYPE>U</CLASSIFICATION_TYPE><NORAD_CAT_ID>25475</NORAD_CAT_ID><ELEMENT_SET_NO>999</ELEMENT_SET_NO><REV_AT_EPOCH>34956</REV_AT_EPOCH><BSTAR>.10268E-2</BSTAR><MEAN_MOTION_DOT>.2844E-4</MEAN_MOTION_DOT><MEAN_MOTION_DDOT>0</MEAN_MOTION_DDOT></tleParameters></data></segment></body></omm>
<omm id="CCSDS_OMM_VERS" version="2.0">
<header><CREATION_DATE/><ORIGINATOR/></header><body><segment><metadata><OBJECT_NAME>ORBCOMM FM22</OBJECT_NAME><OBJECT_ID>1998-053B</OBJECT_ID><CENTER_NAME>EARTH</CENTER_NAME><REF_FRAME>TEME</REF_FRAME><TIME_SYSTEM>UTC</TIME_SYSTEM><MEAN_ELEMENT_THEORY>SGP4</MEAN_ELEMENT_THEORY></metadata><data><meanElements><EPOCH>2024-07-20T12:51:26.477568</EPOCH><MEAN_MOTION>14.36149054</MEAN_MOTION><ECCENTRICITY>.0001629</ECCENTRICITY><INCLINATION>45.0086</INCLINATION><RA_OF_ASC_NODE>35.1383</RA_OF_ASC_NODE><ARG_OF_PERICENTER>2.9922</ARG_OF_PERICENTER><MEAN_ANOMALY>357.0936</MEAN_ANOMALY></meanElements><tleParameters><EPHEMERIS_TYPE>0</EPHEMERIS_TYPE><CLASSIFICATION_TYPE>U</CLASSIFICATION_TYPE><NORAD_CAT_ID>25476</NORAD_CAT_ID><ELEMENT_SET_NO>999</ELEMENT_SET_NO><REV_AT_EPOCH>34955</REV_AT_EPOCH><BSTAR>.99978E-3</BSTAR><MEAN_MOTION_DOT>.2799E-4</MEAN_MOTION_DOT><MEAN_MOTION_DDOT>0</MEAN_MOTION_DDOT></tleParameters></data></segment></body></omm>
<omm id="CCSDS_OMM_VERS" version="2.0">
<header><CREATION_DATE/><ORIGINATOR/></header><body><segment><metadata><OBJECT_NAME>ORBCOMM FM23</OBJECT_NAME><OBJECT_ID>1998-053C</OBJECT_ID><CENTER_NAME>EARTH</CENTER_NAME><REF_FRAME>TEME</REF_FRAME><TIME_SYSTEM>UTC</TIME_SYSTEM><MEAN_ELEMENT_THEORY>SGP4</MEAN_ELEMENT_THEORY></metadata><data><meanElements><EPOCH>2024-07-20T13:00:24.639840</EPOCH><MEAN_MOTION>14.35618080</MEAN_MOTION><ECCENTRICITY>.0001158</ECCENTRICITY><INCLINATION>45.0092</INCLINATION><RA_OF_ASC_NODE>40.5289</RA_OF_ASC_NODE><ARG_OF_PERICENTER>7.0542</ARG_OF_PERICENTER><MEAN_ANOMALY>353.0322</MEAN_ANOMALY></meanElements><tleParameters><EPHEMERIS_TYPE>0</EPHEMERIS_TYPE><CLASSIFICATION_TYPE>U</CLASSIFICATION_TYPE><NORAD_CAT_ID>25477</NORAD_CAT_ID><ELEMENT_SET_NO>999</ELEMENT_SET_NO><REV_AT_EPOCH>34970</REV_AT_EPOCH><BSTAR>.95288E-3</BSTAR><MEAN_MOTION_DOT>.2632E-4</MEAN_MOTION_DOT><MEAN_MOTION_DDOT>0</MEAN_MOTION_DDOT></tleParameters></data></segment></body></omm>

</ndm>
